[{"OBJECT_NAME":"EXO-0","OBJECT_ID":"2023-174DK","EPOCH":"2026-03-09T17:03:04.419648","MEAN_MOTION":15.32821991,"ECCENTRICITY":0.00098779,"INCLINATION":97.3864,"RA_OF_ASC_NODE":148.9039,"ARG_OF_PERICENTER":157.1125,"MEAN_ANOMALY":203.0559,"EPHEMERIS_TYPE":0,"CLASSIFICATION_TYPE":"U","NORAD_CAT_ID":59175,"ELEMENT_SET_NO":999,"REV_AT_EPOCH":12979,"BSTAR":0.00036716083,"MEAN_MOTION_DOT":0.00011582,"MEAN_MOTION_DDOT":0},{"OBJECT_NAME":"STARLINK-35547","OBJECT_ID":"2025-237F","EPOCH":"2026-03-09T05:51:20.794752","MEAN_MOTION":15.30197249,"ECCENTRICITY":0.00012505,"INCLINATION":53.162,"RA_OF_ASC_NODE":41.6006,"ARG_OF_PERICENTER":92.6754,"MEAN_ANOMALY":267.439,"EPHEMERIS_TYPE":0,"CLASSIFICATION_TYPE":"U","NORAD_CAT_ID":66119,"ELEMENT_SET_NO":999,"REV_AT_EPOCH":2254,"BSTAR":0.00054465027,"MEAN_MOTION_DOT":0.00015805,"MEAN_MOTION_DDOT":0}]
