EXO-0                   
1 59175U 23174DK  26068.71046781  .00011582  00000+0  36716-3 0  9992
2 59175  97.3864 148.9039 0009878 157.1125 203.0559 15.32821991129797
STARLINK-35547          
1 66119U 25237F   26068.24399068  .00015805  00000+0  54465-3 0  9990
2 66119  53.1620  41.6006 0001250  92.6754 267.4390 15.30197249 22545
